IRIDIUM 166             
1 43570U 18061B   25198.47590806 -.00000012  00000+0 -11395-4 0  9996
2 43570  86.3989 196.5869 0001935  91.4400 268.7018 14.34217434365429
IRIDIUM 158             
1 43571U 18061C   25198.51396292  .00000015  00000+0 -17577-5 0  9996
2 43571  86.3989 196.5808 0002195  84.2483 275.8962 14.34217683365392
IRIDIUM 165             
1 43572U 18061D   25198.46957301  .00000117  00000+0  34646-4 0  9992
2 43572  86.3986 196.6391 0002223  92.0956 268.0494 14.34218418365416
IRIDIUM 155             
1 43573U 18061E   25198.50127841  .00000043  00000+0  84516-5 0  9996
2 43573  86.3981 196.5117 0002132  82.9966 277.1472 14.34217742365387
IRIDIUM 154             
1 43574U 18061F   25198.48225141  .00000037  00000+0  62632-5 0  9994
2 43574  86.3985 196.6365 0002277  88.7525 271.3932 14.34217634365436
IRIDIUM 163             
1 43575U 18061G   25198.46322337  .00000001  00000+0 -67287-5 0  9991
2 43575  86.3987 196.5706 0002297  85.5878 274.5580 14.34217472365406
IRIDIUM 156             
1 43576U 18061H   25198.92623198  .00000024  00000+0  14488-5 0  9991
2 43576  86.3983 196.3841 0001975  84.7763 275.3658 14.34217670365468
IRIDIUM 164             
1 43577U 18061J   25198.90720466 -.00000034  00000+0 -19248-4 0  9997
2 43577  86.3990 196.4271 0002105  94.9123 265.2313 14.34217268365508
